{
    "links": {
        "self": "http://www.neowsapp.com/rest/v1/neo/3893640?api_key=iIulBulltgU6a56xZRHN4H3l9WmuAYTsLGpBGhQ2"
    },
    "id": "3893640",
    "neo_reference_id": "3893640",
    "name": "(2019 WH4)",
    "designation": "2019 WH4",
    "nasa_jpl_url": "http://ssd.jpl.nasa.gov/sbdb.cgi?sstr=3893640",
    "absolute_magnitude_h": 27.3,
    "estimated_diameter": {
        "kilometers": {
            "estimated_diameter_min": 0.0092162655,
            "estimated_diameter_max": 0.0206081961
        },
        "meters": {
            "estimated_diameter_min": 9.216265485,
            "estimated_diameter_max": 20.6081961232
        },
        "miles": {
            "estimated_diameter_min": 0.0057267201,
            "estimated_diameter_max": 0.0128053354
        },
        "feet": {
            "estimated_diameter_min": 30.2370924539,
            "estimated_diameter_max": 67.6121941689
        }
    },
    "is_potentially_hazardous_asteroid": false,
    "close_approach_data": [
        {
            "close_approach_date": "2019-12-02",
            "close_approach_date_full": "2019-Dec-02 05:44",
            "epoch_date_close_approach": 1575265440000,
            "relative_velocity": {
                "kilometers_per_second": "8.1072904756",
                "kilometers_per_hour": "29186.2457122656",
                "miles_per_hour": "18135.1980649352"
            },
            "miss_distance": {
                "astronomical": "0.0149260605",
                "lunar": "5.8062375345",
                "kilometers": "2232906.858291135",
                "miles": "1387463.984182263"
            },
            "orbiting_body": "Earth"
        }
    ],
    "orbital_data": {
        "orbit_id": "3",
        "orbit_determination_date": "2019-12-04 07:21:30",
        "first_observation_date": "2019-11-25",
        "last_observation_date": "2019-12-02",
        "data_arc_in_days": 7,
        "observations_used": 17,
        "orbit_uncertainty": "8",
        "minimum_orbit_intersection": ".01417",
        "jupiter_tisserand_invariant": "3.172",
        "epoch_osculation": "2458815.5",
        "eccentricity": ".6056302082440147",
        "semi_major_axis": "2.516294026853719",
        "inclination": "3.555003162105625",
        "ascending_node_longitude": "243.5200308327798",
        "orbital_period": "1457.942871892026",
        "perihelion_distance": ".9923503513671308",
        "perihelion_argument": "197.0367495780555",
        "aphelion_distance": "4.040237702340307",
        "perihelion_time": "2458828.433867513381",
        "mean_anomaly": "356.8063273297021",
        "mean_motion": ".2469232553212559",
        "equinox": "J2000",
        "orbit_class": {
            "orbit_class_type": "APO",
            "orbit_class_description": "Near-Earth asteroid orbits which cross the Earth’s orbit similar to that of 1862 Apollo",
            "orbit_class_range": "a (semi-major axis) > 1.0 AU; q (perihelion) < 1.017 AU"
        }
    },
    "is_sentry_object": false
}